ORBCOMM FM24            
1 25478U 98053D   25202.13714389  .00000727  00000+0  28405-3 0  9995
2 25478  45.0080 108.1171 0003290  19.0466 341.0505 14.38156388402331
ORBCOMM FM25            
1 25479U 98053E   25202.80381866  .00000812  00000+0  31167-3 0  9994
2 25479  45.0072 103.2310 0005206  43.3827 316.7431 14.38130581402721
ORBCOMM FM26            
1 25480U 98053F   25202.69901523  .00000591  00000+0  24429-3 0  9998
2 25480  45.0069 100.4352 0006501  63.8383 296.3133 14.37182313402616
ORBCOMM FM27            
1 25481U 98053G   25202.44345041  .00000796  00000+0  30652-3 0  9991
2 25481  45.0054 105.1304 0001877  10.3271 349.7616 14.38160740402603
ORBCOMM FM28            
1 25482U 98053H   25202.89341885  .00000579  00000+0  23477-3 0  9999
2 25482  45.0065  40.4472 0005093 110.5217 249.6178 14.38343212403351
ORBCOMM FM30            
1 25980U 99065A   25202.54602753  .00000513  00000+0  21736-3 0  9996
2 25980  45.0318 287.0783 0007947 193.0916 166.9727 14.37349902339395
ORBCOMM FM31            
1 25981U 99065B   25202.59026561  .00000463  00000+0  20124-3 0  9993
2 25981  45.0227 280.3497 0005853 217.5426 142.5014 14.37287676338954
ORBCOMM FM32            
1 25982U 99065C   25202.52054569  .00000512  00000+0  22138-3 0  9998
2 25982  45.0164 297.4892 0008040 207.4120 152.6304 14.36332909339531
